FENGYUN 1C DEB          
1 29801U 99025CT  17345.95392014  .00000037  00000-0  28849-4 0  9993
2 29801  98.8557 116.5805 0107019 195.4507 279.6898 14.33555786570478
